{"type":"FeatureCollection","features":[{"type":"Feature","properties":{"council_key":"cambridge","lga_name":"Cambridge","source":"frontend/public/data/wa_lga.geojson","source_licence":"CC BY 4.0 \u2014 ABS ASGS Edition 3 (2021)","retrieved_at":"2026-09-15T13:56:36.677962+00:00","simplify_epsilon":0,"n_vertices":549},"geometry":{"type":"Polygon","coordinates":[[[115.7546,-31.9309],[115.7546,-31.9314],[115.7546,-31.9316],[115.7546,-31.9319],[115.7547,-31.9321],[115.7547,-31.9323],[115.7546,-31.9326],[115.7547,-31.9328],[115.7546,-31.9331],[115.7546,-31.9333],[115.7546,-31.9335],[115.7546,-31.9338],[115.7547,-31.934],[115.7547,-31.9346],[115.7545,-31.9346],[115.7545,-31.9351],[115.7545,-31.9353],[115.7545,-31.9356],[115.7544,-31.9358],[115.7545,-31.936],[115.7545,-31.9365],[115.7545,-31.9367],[115.7546,-31.937],[115.7546,-31.9372],[115.7545,-31.9376],[115.7546,-31.9378],[115.7546,-31.938],[115.7546,-31.9383],[115.7546,-31.9385],[115.7545,-31.9387],[115.7542,-31.939],[115.7538,-31.9389],[115.7538,-31.9392],[115.7538,-31.9394],[115.7538,-31.9396],[115.7538,-31.9399],[115.7539,-31.9401],[115.7539,-31.9404],[115.7539,-31.9406],[115.7539,-31.9408],[115.754,-31.9411],[115.754,-31.9413],[115.754,-31.9415],[115.7541,-31.9417],[115.7541,-31.942],[115.7541,-31.9425],[115.7541,-31.9427],[115.7541,-31.9429],[115.7541,-31.9432],[115.7541,-31.9437],[115.7541,-31.9439],[115.7541,-31.9441],[115.7541,-31.9446],[115.754,-31.9448],[115.754,-31.945],[115.7541,-31.9453],[115.7541,-31.9455],[115.7541,-31.9457],[115.7542,-31.946],[115.7542,-31.9464],[115.7542,-31.9467],[115.7541,-31.9471],[115.7541,-31.9474],[115.7541,-31.9476],[115.754,-31.9479],[115.754,-31.9483],[115.7539,-31.9488],[115.7539,-31.9491],[115.7539,-31.9493],[115.754,-31.9496],[115.7539,-31.9498],[115.7539,-31.9501],[115.7539,-31.9503],[115.7539,-31.9505],[115.7539,-31.9513],[115.754,-31.9514],[115.7544,-31.9516],[115.762,-31.9548],[115.7628,-31.9593],[115.7632,-31.9611],[115.7632,-31.9613],[115.7632,-31.962],[115.7634,-31.9627],[115.7635,-31.9626],[115.7637,-31.9626],[115.7638,-31.9626],[115.7645,-31.9626],[115.7656,-31.9627],[115.7683,-31.9627],[115.7719,-31.9627],[115.7739,-31.9627],[115.774,-31.9627],[115.7741,-31.9627],[115.7748,-31.9627],[115.7752,-31.9627],[115.7753,-31.9627],[115.7754,-31.9627],[115.7759,-31.9628],[115.7759,-31.9607],[115.7759,-31.9578],[115.7759,-31.9571],[115.7759,-31.9564],[115.7759,-31.9559],[115.7759,-31.9498],[115.7806,-31.9498],[115.7877,-31.9498],[115.7877,-31.9483],[115.7877,-31.9479],[115.7879,-31.9479],[115.7902,-31.9479],[115.7905,-31.9479],[115.7912,-31.9479],[115.7918,-31.9478],[115.7918,-31.9475],[115.7918,-31.9468],[115.7918,-31.9458],[115.7918,-31.9455],[115.7918,-31.9442],[115.7935,-31.9443],[115.7949,-31.9443],[115.7955,-31.9443],[115.7961,-31.9443],[115.7986,-31.9443],[115.8014,-31.9443],[115.8041,-31.9443],[115.8041,-31.9453],[115.8041,-31.9458],[115.8041,-31.9463],[115.8041,-31.9469],[115.8041,-31.9476],[115.8043,-31.9476],[115.8047,-31.9476],[115.806,-31.9476],[115.807,-31.9476],[115.807,-31.9476],[115.8072,-31.9476],[115.8078,-31.9476],[115.8078,-31.9474],[115.8079,-31.9443],[115.8079,-31.9439],[115.8083,-31.9439],[115.8085,-31.9439],[115.8111,-31.9439],[115.8116,-31.9439],[115.8122,-31.9439],[115.8122,-31.942],[115.8127,-31.942],[115.8132,-31.942],[115.8141,-31.942],[115.8147,-31.942],[115.8154,-31.942],[115.8168,-31.942],[115.8168,-31.9421],[115.8168,-31.9421],[115.8168,-31.9421],[115.8168,-31.9421],[115.8169,-31.9421],[115.8169,-31.9421],[115.8169,-31.9421],[115.8169,-31.9421],[115.8169,-31.9421],[115.817,-31.9421],[115.817,-31.9421],[115.817,-31.9421],[115.817,-31.9421],[115.817,-31.9421],[115.8171,-31.9421],[115.8188,-31.9421],[115.8198,-31.9421],[115.8221,-31.9421],[115.8231,-31.9421],[115.8233,-31.9421],[115.8234,-31.9421],[115.8238,-31.9421],[115.8242,-31.9421],[115.8244,-31.9422],[115.8249,-31.9424],[115.8251,-31.9425],[115.8259,-31.9429],[115.8264,-31.9432],[115.8267,-31.9434],[115.8268,-31.9434],[115.827,-31.9435],[115.8271,-31.9435],[115.8271,-31.9436],[115.8272,-31.9437],[115.8276,-31.9436],[115.8282,-31.9434],[115.8286,-31.9433],[115.8288,-31.9433],[115.8288,-31.9433],[115.8298,-31.9431],[115.8299,-31.9431],[115.8309,-31.9429],[115.8311,-31.9429],[115.8317,-31.9428],[115.8318,-31.9428],[115.8323,-31.9428],[115.8334,-31.9427],[115.8338,-31.9427],[115.8341,-31.9426],[115.835,-31.9426],[115.8352,-31.9426],[115.8354,-31.9426],[115.8355,-31.9426],[115.836,-31.9426],[115.8366,-31.9426],[115.8366,-31.9426],[115.8368,-31.9426],[115.8372,-31.9426],[115.8378,-31.9427],[115.838,-31.9427],[115.8387,-31.9428],[115.8399,-31.9431],[115.8404,-31.9431],[115.8414,-31.9434],[115.8416,-31.9435],[115.8426,-31.9426],[115.843,-31.9423],[115.8435,-31.9419],[115.8438,-31.9416],[115.844,-31.9414],[115.8437,-31.9413],[115.8432,-31.9408],[115.8427,-31.9405],[115.8413,-31.9395],[115.8409,-31.9392],[115.8405,-31.9388],[115.8402,-31.9385],[115.8396,-31.9378],[115.8392,-31.9374],[115.8388,-31.9368],[115.8385,-31.9364],[115.8385,-31.9363],[115.8385,-31.9363],[115.8384,-31.9361],[115.8383,-31.936],[115.8381,-31.9355],[115.8377,-31.9348],[115.8375,-31.9343],[115.837,-31.9333],[115.8367,-31.9329],[115.8364,-31.9324],[115.8361,-31.932],[115.8359,-31.9317],[115.8356,-31.9313],[115.8351,-31.9307],[115.8345,-31.93],[115.8323,-31.928],[115.8312,-31.927],[115.8305,-31.9264],[115.8304,-31.9263],[115.8292,-31.9252],[115.8285,-31.9246],[115.828,-31.9242],[115.8275,-31.9237],[115.8274,-31.9236],[115.8271,-31.9233],[115.8265,-31.9226],[115.8262,-31.9222],[115.826,-31.9223],[115.8254,-31.9225],[115.8247,-31.9227],[115.8243,-31.9228],[115.8236,-31.9228],[115.8232,-31.9228],[115.8226,-31.9229],[115.8221,-31.9229],[115.8216,-31.9229],[115.8213,-31.9229],[115.82,-31.9229],[115.819,-31.9229],[115.8176,-31.9228],[115.8175,-31.9231],[115.8174,-31.9234],[115.8174,-31.9237],[115.8174,-31.9238],[115.8174,-31.9242],[115.8174,-31.9245],[115.8174,-31.9246],[115.8174,-31.9247],[115.8174,-31.9248],[115.8173,-31.925],[115.8172,-31.9252],[115.817,-31.9253],[115.8167,-31.9258],[115.8165,-31.9262],[115.8161,-31.9268],[115.8157,-31.9273],[115.8155,-31.9277],[115.8149,-31.9286],[115.8148,-31.9287],[115.8146,-31.9291],[115.8144,-31.9294],[115.8142,-31.9296],[115.8142,-31.9296],[115.8141,-31.9297],[115.814,-31.9297],[115.8139,-31.9298],[115.8137,-31.9299],[115.8136,-31.9299],[115.813,-31.9302],[115.8129,-31.9302],[115.8125,-31.9304],[115.8123,-31.9304],[115.8119,-31.9306],[115.8117,-31.9307],[115.8107,-31.9311],[115.8107,-31.9311],[115.8106,-31.9312],[115.8104,-31.9312],[115.8101,-31.9313],[115.81,-31.9313],[115.8095,-31.9314],[115.8092,-31.9314],[115.8088,-31.9315],[115.8079,-31.9316],[115.8079,-31.9311],[115.8078,-31.931],[115.8078,-31.931],[115.8077,-31.931],[115.8077,-31.9309],[115.8076,-31.9309],[115.807,-31.931],[115.8066,-31.9311],[115.8065,-31.9311],[115.8062,-31.9311],[115.8058,-31.9311],[115.8044,-31.9324],[115.8041,-31.9327],[115.804,-31.9328],[115.8028,-31.9327],[115.8022,-31.9327],[115.8021,-31.9327],[115.802,-31.9327],[115.8018,-31.9326],[115.8002,-31.931],[115.7999,-31.9307],[115.7996,-31.9303],[115.7994,-31.9302],[115.7991,-31.9299],[115.7982,-31.929],[115.7978,-31.9287],[115.7974,-31.9283],[115.7973,-31.9282],[115.797,-31.928],[115.7967,-31.9276],[115.7966,-31.9274],[115.7965,-31.9274],[115.7963,-31.9274],[115.7962,-31.9275],[115.7955,-31.9275],[115.7944,-31.9275],[115.7936,-31.9275],[115.7929,-31.9275],[115.7925,-31.9275],[115.7924,-31.9275],[115.7923,-31.9275],[115.7905,-31.9275],[115.7902,-31.9275],[115.7897,-31.9275],[115.7893,-31.9275],[115.7891,-31.9275],[115.7889,-31.9275],[115.7889,-31.9274],[115.7889,-31.9273],[115.7889,-31.9272],[115.7888,-31.927],[115.7888,-31.9268],[115.7886,-31.9266],[115.7884,-31.9264],[115.7882,-31.9263],[115.7879,-31.9261],[115.7867,-31.9257],[115.7863,-31.9256],[115.7859,-31.9253],[115.7857,-31.9251],[115.7857,-31.925],[115.7855,-31.9246],[115.7853,-31.9241],[115.7852,-31.9238],[115.7852,-31.9237],[115.7851,-31.9236],[115.7849,-31.9234],[115.7847,-31.9232],[115.7847,-31.9231],[115.7846,-31.9231],[115.7846,-31.923],[115.7845,-31.923],[115.7844,-31.9229],[115.7843,-31.9229],[115.7843,-31.9229],[115.7842,-31.9229],[115.7841,-31.9228],[115.7841,-31.9227],[115.7838,-31.9227],[115.7836,-31.9226],[115.7822,-31.9224],[115.7818,-31.9223],[115.7802,-31.922],[115.7798,-31.9219],[115.7793,-31.9218],[115.7792,-31.9218],[115.7791,-31.9218],[115.779,-31.9218],[115.7789,-31.9218],[115.7788,-31.9218],[115.7787,-31.9218],[115.7786,-31.9218],[115.7785,-31.9218],[115.7782,-31.9218],[115.7775,-31.9218],[115.7769,-31.9218],[115.7762,-31.9218],[115.7759,-31.9218],[115.7755,-31.9218],[115.7754,-31.9218],[115.7752,-31.9218],[115.775,-31.9218],[115.7749,-31.9218],[115.7747,-31.9218],[115.7745,-31.9218],[115.7744,-31.9218],[115.7743,-31.9218],[115.7721,-31.9218],[115.7713,-31.9218],[115.77,-31.9218],[115.7686,-31.9218],[115.7668,-31.9218],[115.7668,-31.9218],[115.7661,-31.9218],[115.766,-31.9212],[115.766,-31.9205],[115.766,-31.9204],[115.7661,-31.9193],[115.7661,-31.9192],[115.7661,-31.9191],[115.7661,-31.9191],[115.766,-31.9189],[115.766,-31.9186],[115.766,-31.9182],[115.766,-31.9176],[115.766,-31.9175],[115.766,-31.9175],[115.766,-31.9174],[115.766,-31.9173],[115.766,-31.9165],[115.766,-31.9158],[115.766,-31.9148],[115.766,-31.9144],[115.766,-31.9135],[115.766,-31.9134],[115.766,-31.9132],[115.766,-31.9127],[115.7661,-31.912],[115.766,-31.9115],[115.7661,-31.911],[115.766,-31.9109],[115.766,-31.9109],[115.7662,-31.9109],[115.7662,-31.9108],[115.7661,-31.9081],[115.7649,-31.9081],[115.7645,-31.9081],[115.7644,-31.9081],[115.7644,-31.9082],[115.7631,-31.9082],[115.7626,-31.9082],[115.7621,-31.9082],[115.76,-31.9082],[115.7596,-31.9082],[115.7595,-31.9082],[115.7587,-31.9082],[115.7585,-31.9082],[115.7584,-31.9082],[115.7582,-31.9082],[115.755,-31.9082],[115.7551,-31.9087],[115.7551,-31.9094],[115.755,-31.9099],[115.7551,-31.9101],[115.755,-31.9103],[115.755,-31.9106],[115.755,-31.9108],[115.755,-31.911],[115.755,-31.9115],[115.755,-31.9117],[115.7549,-31.912],[115.7549,-31.9125],[115.7549,-31.9127],[115.7549,-31.913],[115.7549,-31.9132],[115.7549,-31.9137],[115.7549,-31.9144],[115.7549,-31.9149],[115.7549,-31.9151],[115.755,-31.9161],[115.7549,-31.9163],[115.7549,-31.9166],[115.755,-31.9168],[115.755,-31.9171],[115.755,-31.9173],[115.755,-31.9176],[115.755,-31.9178],[115.755,-31.9181],[115.755,-31.9186],[115.755,-31.9188],[115.755,-31.919],[115.755,-31.9195],[115.7549,-31.9198],[115.7549,-31.9203],[115.7549,-31.9205],[115.7549,-31.9208],[115.7548,-31.921],[115.7548,-31.9213],[115.7548,-31.9215],[115.7547,-31.9217],[115.7547,-31.922],[115.7547,-31.9225],[115.7546,-31.9227],[115.7547,-31.9229],[115.7547,-31.9232],[115.7547,-31.9234],[115.7547,-31.9237],[115.7547,-31.9239],[115.7547,-31.9242],[115.7547,-31.9244],[115.7546,-31.9247],[115.7545,-31.9252],[115.7545,-31.9254],[115.7545,-31.9257],[115.7545,-31.9259],[115.7545,-31.9262],[115.7545,-31.9264],[115.7545,-31.9267],[115.7545,-31.9269],[115.7545,-31.9272],[115.7545,-31.9274],[115.7545,-31.9277],[115.7546,-31.928],[115.7546,-31.9282],[115.7546,-31.9285],[115.7546,-31.9287],[115.7546,-31.929],[115.7546,-31.9292],[115.7546,-31.9295],[115.7546,-31.9297],[115.7546,-31.9302],[115.7546,-31.9309]]]}}]}